CCSDS_OEM_VERS = 1.0
CREATION_DATE  = 2017-05-11T11:02:18
ORIGINATOR     = GMAT USER

META_START
OBJECT_NAME          = MOPSSat_alt_35785_km_RAAN_0_086
OBJECT_ID            = SatId
CENTER_NAME          = Earth
REF_FRAME            = EME2000
TIME_SYSTEM          = UTC
START_TIME           = 2017-01-01T00:00:00.000
USEABLE_START_TIME   = 2017-01-01T00:00:00.000
USEABLE_STOP_TIME    = 2017-01-02T00:00:00.000
STOP_TIME            = 2017-01-02T00:00:00.000
INTERPOLATION        = Lagrange
INTERPOLATION_DEGREE = 7 
META_STOP


                                                                                   

2017-01-01T07:10:50.000  -1.383687926605783e+04   3.996774557303943e+04   6.993214139620254e+01  -2.905854742675778e+00  -9.753139947675087e-01  -1.663523851680905e-03
2017-01-01T07:11:00.000  -1.386593416583776e+04   3.995798190609474e+04   6.991548792870250e+01  -2.905125049277788e+00  -9.774193309514555e-01  -1.667169539550701e-03
2017-01-01T07:11:10.000  -1.389498176128718e+04   3.994819718851816e+04   6.989879800900860e+01  -2.904393840377655e+00  -9.795241088941381e-01  -1.670814269548141e-03
2017-01-01T07:11:20.000  -1.392402203732965e+04   3.993839142587080e+04   6.988207164666336e+01  -2.903661116417435e+00  -9.816283275252450e-01  -1.674458039837284e-03
2017-01-01T07:11:30.000  -1.395305497882825e+04   3.992856462374690e+04   6.986530885126571e+01  -2.902926877841586e+00  -9.837319857701394e-01  -1.678100848574693e-03
2017-01-01T07:11:40.000  -1.398208057067080e+04   3.991871678774409e+04   6.984850963242063e+01  -2.902191125094770e+00  -9.858350825560277e-01  -1.681742693920115e-03
2017-01-01T07:11:50.000  -1.401109879738811e+04   3.990884792359537e+04   6.983167399996410e+01  -2.901453858631679e+00  -9.879376167843067e-01  -1.685383573988597e-03
2017-01-01T07:12:00.000  -1.404010964361675e+04   3.989895803700972e+04   6.981480196369128e+01  -2.900715078905163e+00  -9.900395873640875e-01  -1.689023486908538e-03
2017-01-01T07:12:10.000  -1.406911309392687e+04   3.988904713373111e+04   6.979789353345700e+01  -2.899974786370620e+00  -9.921409931997242e-01  -1.692662430800093e-03
2017-01-01T07:12:20.000  -1.409810913348944e+04   3.987911521931083e+04   6.978094871878761e+01  -2.899232981468987e+00  -9.942418332391570e-01  -1.696300403858897e-03
2017-01-01T07:12:30.000  -1.412709774741069e+04   3.986916229933437e+04   6.976396752926783e+01  -2.898489664643701e+00  -9.963421064256870e-01  -1.699937404272542e-03
2017-01-01T07:12:40.000  -1.415607892088304e+04   3.985918837937045e+04   6.974694997445386e+01  -2.897744836336870e+00  -9.984418117089146e-01  -1.703573430239522e-03
2017-01-01T07:12:50.000  -1.418505263880872e+04   3.984919346509722e+04   6.972989606408872e+01  -2.896998496998731e+00  -1.000540948017466e+00  -1.707208479921999e-03
2017-01-01T07:13:00.000  -1.421401888607952e+04   3.983917756220934e+04   6.971280580794364e+01  -2.896250647080687e+00  -1.002639514279266e+00  -1.710842551480910e-03
2017-01-01T07:13:10.000  -1.424297764757638e+04   3.982914067641689e+04   6.969567921581630e+01  -2.895501287035226e+00  -1.004737509421505e+00  -1.714475643075915e-03
2017-01-01T07:13:20.000  -1.427192890789196e+04   3.981908281354456e+04   6.967851629770013e+01  -2.894750417323328e+00  -1.006834932350545e+00  -1.718107752830610e-03
2017-01-01T07:13:30.000  -1.430087265170471e+04   3.980900397939909e+04   6.966131706355789e+01  -2.893998038404570e+00  -1.008931781979015e+00  -1.721738878879436e-03
2017-01-01T07:13:40.000  -1.432980886363143e+04   3.979890417982107e+04   6.964408152341034e+01  -2.893244150740999e+00  -1.011028057215132e+00  -1.725369019349191e-03
2017-01-01T07:13:50.000  -1.435873752888027e+04   3.978878342045734e+04   6.962680968694754e+01  -2.892488754780123e+00  -1.013123757010007e+00  -1.728998172440927e-03
2017-01-01T07:14:00.000  -1.438765863259764e+04   3.977864170698829e+04   6.960950156391714e+01  -2.891731850971905e+00  -1.015218880310329e+00  -1.732626336348047e-03
2017-01-01T07:14:10.000  -1.441657216001605e+04   3.976847904507701e+04   6.959215716403710e+01  -2.890973439764949e+00  -1.017313426069080e+00  -1.736253509274828e-03
2017-01-01T07:14:20.000  -1.444547809607854e+04   3.975829544049795e+04   6.957477649721562e+01  -2.890213521616106e+00  -1.019407393218321e+00  -1.739879689389337e-03
2017-01-01T07:14:30.000  -1.447437642571784e+04   3.974809089904209e+04   6.955735957338931e+01  -2.889452096983410e+00  -1.021500780689420e+00  -1.743504874858426e-03
2017-01-01T07:14:40.000  -1.450326713385591e+04   3.973786542651590e+04   6.953990640252107e+01  -2.888689166325979e+00  -1.023593587413017e+00  -1.747129063847683e-03
2017-01-01T07:14:50.000  -1.453215020512719e+04   3.972761902884235e+04   6.952241699477291e+01  -2.887924730111560e+00  -1.025685812298980e+00  -1.750752254486707e-03
2017-01-01T07:15:00.000  -1.456102562425181e+04   3.971735171192590e+04   6.950489136027534e+01  -2.887158788806452e+00  -1.027777454263436e+00  -1.754374444915930e-03
2017-01-01T07:15:10.000  -1.458989337588845e+04   3.970706348170523e+04   6.948732950921742e+01  -2.886391342879451e+00  -1.029868512218114e+00  -1.757995633268158e-03
2017-01-01T07:15:20.000  -1.461875344528583e+04   3.969675434392143e+04   6.946973145145078e+01  -2.885622392784540e+00  -1.031958985117537e+00  -1.761615817750313e-03
2017-01-01T07:15:30.000  -1.464760581763116e+04   3.968642430434952e+04   6.945209719688539e+01  -2.884851938978187e+00  -1.034048871911821e+00  -1.765234996561679e-03
2017-01-01T07:15:40.000  -1.467645047819758e+04   3.967607336874669e+04   6.943442675540068e+01  -2.884079981915449e+00  -1.036138171557365e+00  -1.768853167912410e-03
2017-01-01T07:15:50.000  -1.470528741196958e+04   3.966570154298332e+04   6.941672013706939e+01  -2.883306522059776e+00  -1.038226882989704e+00  -1.772470329976518e-03
2017-01-01T07:16:00.000  -1.473411660392140e+04   3.965530883294643e+04   6.939897735199274e+01  -2.882531559875801e+00  -1.040315005143686e+00  -1.776086480926816e-03
2017-01-01T07:16:10.000  -1.476293803901662e+04   3.964489524453858e+04   6.938119841029859e+01  -2.881755095829243e+00  -1.042402536953440e+00  -1.779701618934861e-03
2017-01-01T07:16:20.000  -1.479175170193207e+04   3.963446078378070e+04   6.936338332231703e+01  -2.880977130394581e+00  -1.044489477332378e+00  -1.783315742136345e-03
2017-01-01T07:16:30.000  -1.482055757743015e+04   3.962400545667461e+04   6.934553209834557e+01  -2.880197664044815e+00  -1.046575825200164e+00  -1.786928848677769e-03
2017-01-01T07:16:40.000  -1.484935565020927e+04   3.961352926925786e+04   6.932764474874287e+01  -2.879416697255537e+00  -1.048661579471876e+00  -1.790540936697698e-03
2017-01-01T07:16:50.000  -1.487814590556456e+04   3.960303222736341e+04   6.930972128351831e+01  -2.878634230487032e+00  -1.050746739105867e+00  -1.794152004409615e-03
2017-01-01T07:17:00.000  -1.490692832872544e+04   3.959251433686042e+04   6.929176171274307e+01  -2.877850264202210e+00  -1.052831303055782e+00  -1.797762050018848e-03
2017-01-01T07:17:10.000  -1.493570290502670e+04   3.958197560359216e+04   6.927376604644442e+01  -2.877064798862003e+00  -1.054915270282946e+00  -1.801371071744022e-03
2017-01-01T07:17:20.000  -1.496446961944815e+04   3.957141603354212e+04   6.925573429488898e+01  -2.876277834937721e+00  -1.056998639723027e+00  -1.804979067759324e-03
2017-01-01T07:17:30.000  -1.499322845699466e+04   3.956083563269728e+04   6.923766646834943e+01  -2.875489372900878e+00  -1.059081410313562e+00  -1.808586036242166e-03
2017-01-01T07:17:40.000  -1.502197940261131e+04   3.955023440707864e+04   6.921956257715659e+01  -2.874699413225462e+00  -1.061163580987805e+00  -1.812191975362546e-03
2017-01-01T07:17:50.000  -1.505072244120698e+04   3.953961236273422e+04   6.920142263168759e+01  -2.873907956387405e+00  -1.063245150676445e+00  -1.815796883286004e-03
2017-01-01T07:18:00.000  -1.507945755768250e+04   3.952896950572723e+04   6.918324664234558e+01  -2.873115002863713e+00  -1.065326118309637e+00  -1.819400758177150e-03
2017-01-01T07:18:10.000  -1.510818473694108e+04   3.951830584213247e+04   6.916503461955352e+01  -2.872320553132185e+00  -1.067406482817763e+00  -1.823003598200982e-03
2017-01-01T07:18:20.000  -1.513690396399134e+04   3.950762137799878e+04   6.914678657369016e+01  -2.871524607668630e+00  -1.069486243138889e+00  -1.826605401535791e-03
2017-01-01T07:18:30.000  -1.516561522387845e+04   3.949691611937363e+04   6.912850251513215e+01  -2.870727166948690e+00  -1.071565398213779e+00  -1.830206166364545e-03
2017-01-01T07:18:40.000  -1.519431850168427e+04   3.948619007230343e+04   6.911018245425407e+01  -2.869928231447854e+00  -1.073643946985906e+00  -1.833805890874885e-03
2017-01-01T07:18:50.000  -1.522301378259542e+04   3.947544324280690e+04   6.909182640138357e+01  -2.869127801639505e+00  -1.075721888406381e+00  -1.837404573267688e-03
2017-01-01T07:19:00.000  -1.525170105180094e+04   3.946467563691427e+04   6.907343436686791e+01  -2.868325877997807e+00  -1.077799221426538e+00  -1.841002211744209e-03
2017-01-01T07:19:10.000  -1.528038029448192e+04   3.945388726067115e+04   6.905500636108073e+01  -2.867522460998014e+00  -1.079875944997190e+00  -1.844598804504792e-03
2017-01-01T07:19:20.000  -1.530905149578253e+04   3.944307812014807e+04   6.903654239443821e+01  -2.866717551117171e+00  -1.081952058066525e+00  -1.848194349745218e-03
2017-01-01T07:19:30.000  -1.533771464078769e+04   3.943224822145062e+04   6.901804247741661e+01  -2.865911148834873e+00  -1.084027559578490e+00  -1.851788845653921e-03
2017-01-01T07:19:40.000  -1.536636971460708e+04   3.942139757068698e+04   6.899950662049665e+01  -2.865103254630847e+00  -1.086102448478879e+00  -1.855382290422521e-03
2017-01-01T07:19:50.000  -1.539501670199843e+04   3.941052617411295e+04   6.898093483441134e+01  -2.864293868995740e+00  -1.088176723688054e+00  -1.858974682198598e-03
